QIANFAN-25              
1 61558U 24185G   26008.48357274  .00000454  00000+0  26928-3 0  9993
2 61558  88.9780  75.1661 0008731 217.0894 142.9686 14.05934495 73261
QIANFAN-26              
1 61559U 24185H   26008.47372956  .00000334  00000+0  32120-3 0  9995
2 61559  88.9793  76.8695 0003685 295.1242  64.9542 13.77828260 72351
QIANFAN-27              
1 61560U 24185J   26008.45842238  .00000632  00000+0  25192-3 0  9992
2 61560  88.9784  73.8144 0007557 184.2998 175.8133 14.27372762 73971
QIANFAN-28              
1 61561U 24185K   26008.42726808  .00000964  00000+0  38213-3 0  9990
2 61561  88.9802  73.8232 0007073 183.1416 176.9735 14.28098507 73981
QIANFAN-29              
1 61562U 24185L   26008.47552750  .00000172  00000+0  24789-3 0  9993
2 61562  88.9770  78.5520 0008874 343.4600  16.6261 13.51022395 71400
QIANFAN-30              
1 61563U 24185M   26008.47064264  .00000202  00000+0  29845-3 0  9994
2 61563  88.9790  78.0883 0006149 329.7550  30.3244 13.49998861 71674
QIANFAN-31              
1 61564U 24185N   26008.50316705  .00000230  00000+0  30115-3 0  9992
2 61564  88.9773  77.8443 0005310 322.7535  37.3251 13.57979105 71797
QIANFAN-32              
1 61565U 24185P   26008.49839103  .00000194  00000+0  28366-3 0  9997
2 61565  88.9833  78.2275 0008790 358.1399   1.9718 13.50746678 71659
